COSMOS 2547             
1 46805U 20075A   26061.42179443 -.00000012  00000+0  00000+0 0  9998
2 46805  64.5998 196.0353 0006707 229.5207 130.3796  2.13100073 41630
GPS BIII-4              
1 46826U 20078A   26061.80797074 -.00000010  00000+0  00000+0 0  9990
2 46826  54.0020 215.0904 0068149 204.2599 325.6195  2.00565488 39370
GSAT0223 (GALILEO 27)   
1 49809U 21116A   26048.03988929 -.00000078  00000+0  00000+0 0  9993
2 49809  57.2005 344.9238 0002865 278.1950 264.6358  1.70475508 26130
GSAT0224 (GALILEO 28)   
1 49810U 21116B   26054.89517960 -.00000088  00000+0  00000+0 0  9990
2 49810  57.1984 344.7369 0002182 291.9502 250.7131  1.70475193 26278
GOES 18                 
1 51850U 22021A   26062.13151346  .00000081  00000+0  00000+0 0  9993
2 51850   0.0269  75.3180 0000581 316.5209  39.3881  1.00271419  5521
COSMOS 2557 (706K)      
1 52984U 22075A   26060.64837998 -.00000049  00000+0  00000+0 0  9994
2 52984  64.3609 318.2759 0011670 283.4611  76.4636  2.13101625 28422
METEOSAT-12 (MTG-I1)    
1 54743U 22170C   26062.08722659 -.00000022  00000+0  00000+0 0  9993
2 54743   0.7443  28.9468 0001909 281.6757 241.3450  1.00274625 11913
METEOR-M2 3             
1 57166U 23091A   26062.21289546  .00000021  00000+0  27848-4 0  9998
2 57166  98.6228 119.2948 0005025 113.9322 246.2384 14.24036849139439
COSMOS 2569 (703K)      
1 57517U 23114A   26062.20130410  .00000024  00000+0  00000+0 0  9997
2 57517  65.2411  76.1935 0012886 291.5368  68.3734  2.13103928 20008
METEOR-M2 4             
1 59051U 24039A   26062.17761009  .00000039  00000+0  36986-4 0  9992
2 59051  98.6895  22.8775 0008061 112.7089 247.4941 14.22415894104197
GSAT0225 (GALILEO 29)   
1 59598U 24079A   26061.64714836  .00000013  00000+0  00000+0 0  9994
2 59598  55.0484 104.0564 0002516 256.8199 102.5977  1.70474817 11493
GSAT0227 (GALILEO 30)   
1 59600U 24079C   26060.07188623  .00000010  00000+0  00000+0 0  9990
2 59600  55.0426 104.0995 0000415  85.7874 274.2997  1.70474778 11525
GSAT0232 (GALILEO 32)   
1 61182U 24167A   26048.66150565  .00000069  00000+0  00000+0 0  9995
2 61182  55.2225 224.5881 0003600 296.6314 116.1306  1.70443939  8265
GSAT0226 (GALILEO 31)   
1 61183U 24167B   26061.41649845  .00000011  00000+0  00000+0 0  9995
2 61183  55.2184 224.2466 0001610 129.2375 282.9718  1.70474130  9035
GSAT0233 (GALILEO 33)   
1 67160U 25302A   26044.50000000 -.00000008  00000+0  00000+0 0  9990
2 67160  54.3935 105.2952 0003011 207.0582 359.4109  1.70474578    20
GSAT0234 (GALILEO 34)   
1 67162U 25302C   26044.50000000 -.00000008  00000+0  00000+0 0  9992
2 67162  54.3967 105.2938 0003081 266.8423 119.7309  1.70475065   127
